start=new Date('2022-10-27T00:00:00.000Z').valueOf();
sats=[{"OBJECT_NAME":"STARLINK-4681","EPOCH":"2022-10-26T22:00:00.999936","NORAD_CAT_ID":"53594","BSTAR":"-0.00342840000000","REF_FRAME":"TEME","OBJECT_ID":"2022-104G","PERIOD":"95.436","INCLINATION":"53.2183","CENTER_NAME":"EARTH","ECCENTRICITY":"0.00015390","TLE_LINE1":"1 53594U 22104G   22299.91667824 -.00054470  00000-0 -34284-2 0  9997","MEAN_MOTION_DOT":"-0.00054470","MEAN_MOTION_DDOT":"0.0000000000000","GP_ID":"216242137","EPHEMERIS_TYPE":"0","ELEMENT_SET_NO":"999","FILE":"3635030","COUNTRY_CODE":"US","MEAN_ELEMENT_THEORY":"SGP4","TLE_LINE2":"2 53594  53.2183   4.7575 0001539  56.9423 218.1402 15.08860870  9263","MEAN_MOTION":"15.08860870","APOAPSIS":"540.746","DECAY_DATE":null,"PERIAPSIS":"538.617","MEAN_ANOMALY":"218.1402","LAUNCH_DATE":"2022-08-28","REV_AT_EPOCH":"926","RCS_SIZE":"LARGE","OBJECT_TYPE":"PAYLOAD","RA_OF_ASC_NODE":"4.7575","TIME_SYSTEM":"UTC","ARG_OF_PERICENTER":"56.9423","SEMIMAJOR_AXIS":"6917.817","SITE":"AFETR","CLASSIFICATION_TYPE":"U"},{"MEAN_MOTION":"15.08848589","TLE_LINE2":"2 53595  53.2175   4.7922 0001453  64.8692 190.1605 15.08848589  1306","MEAN_ELEMENT_THEORY":"SGP4","APOAPSIS":"540.724","DECAY_DATE":null,"MEAN_ANOMALY":"190.1605","PERIAPSIS":"538.714","REV_AT_EPOCH":"130","LAUNCH_DATE":"2022-08-28","TIME_SYSTEM":"UTC","RCS_SIZE":"LARGE","OBJECT_TYPE":"PAYLOAD","RA_OF_ASC_NODE":"4.7922","SEMIMAJOR_AXIS":"6917.854","ARG_OF_PERICENTER":"64.8692","CLASSIFICATION_TYPE":"U","SITE":"AFETR","NORAD_CAT_ID":"53595","EPOCH":"2022-10-26T22:00:00.999936","OBJECT_NAME":"STARLINK-4684","CENTER_NAME":"EARTH","OBJECT_ID":"2022-104H","PERIOD":"95.437","INCLINATION":"53.2175","BSTAR":"-0.00145630000000","REF_FRAME":"TEME","TLE_LINE1":"1 53595U 22104H   22299.91667824 -.00023396  00000-0 -14563-2 0  9999","ECCENTRICITY":"0.00014530","EPHEMERIS_TYPE":"0","GP_ID":"216268027","MEAN_MOTION_DDOT":"0.0000000000000","MEAN_MOTION_DOT":"-0.00023396","ELEMENT_SET_NO":"999","COUNTRY_CODE":"US","FILE":"3635100"},{"SITE":"AFETR","CLASSIFICATION_TYPE":"U","ARG_OF_PERICENTER":"69.8740","SEMIMAJOR_AXIS":"6917.836","RCS_SIZE":"LARGE","RA_OF_ASC_NODE":"4.6754","OBJECT_TYPE":"PAYLOAD","TIME_SYSTEM":"UTC","LAUNCH_DATE":"2022-08-28","REV_AT_EPOCH":"130","PERIAPSIS":"538.736","MEAN_ANOMALY":"245.2426","DECAY_DATE":null,"APOAPSIS":"540.666","MEAN_ELEMENT_THEORY":"SGP4","TLE_LINE2":"2 53596  53.2186   4.6754 0001395  69.8740 245.2426 15.08854442  1303","MEAN_MOTION":"15.08854442","FILE":"3635100","COUNTRY_CODE":"US","ELEMENT_SET_NO":"999","MEAN_MOTION_DOT":"-0.00041592","GP_ID":"216267433","EPHEMERIS_TYPE":"0","MEAN_MOTION_DDOT":"0.0000000000000","ECCENTRICITY":"0.00013950","TLE_LINE1":"1 53596U 22104J   22299.91667824 -.00041592  00000-0 -26093-2 0  9999","BSTAR":"-0.00260930000000","REF_FRAME":"TEME","INCLINATION":"53.2186","PERIOD":"95.437","OBJECT_ID":"2022-104J","CENTER_NAME":"EARTH","EPOCH":"2022-10-26T22:00:00.999936","OBJECT_NAME":"STARLINK-4668","NORAD_CAT_ID":"53596"},{"ELEMENT_SET_NO":"999","FILE":"3635100","COUNTRY_CODE":"US","CENTER_NAME":"EARTH","BSTAR":"-0.00228920000000","REF_FRAME":"TEME","PERIOD":"95.437","OBJECT_ID":"2022-104K","INCLINATION":"53.2184","NORAD_CAT_ID":"53597","EPOCH":"2022-10-26T22:00:00.999936","OBJECT_NAME":"STARLINK-4682","MEAN_MOTION_DOT":"-0.00036548","GP_ID":"216268479","MEAN_MOTION_DDOT":"0.0000000000000","EPHEMERIS_TYPE":"0","TLE_LINE1":"1 53597U 22104K   22299.91667824 -.00036548  00000-0 -22892-2 0  9998","ECCENTRICITY":"0.00013970","TIME_SYSTEM":"UTC","RCS_SIZE":"LARGE","RA_OF_ASC_NODE":"4.7145","OBJECT_TYPE":"PAYLOAD","LAUNCH_DATE":"2022-08-28","REV_AT_EPOCH":"130","CLASSIFICATION_TYPE":"U","SITE":"AFETR","ARG_OF_PERICENTER":"62.3556","SEMIMAJOR_AXIS":"6917.844","DECAY_DATE":null,"APOAPSIS":"540.676","MEAN_MOTION":"15.08851778","MEAN_ELEMENT_THEORY":"SGP4","TLE_LINE2":"2 53597  53.2184   4.7145 0001397  62.3556 232.7219 15.08851778  1302","MEAN_ANOMALY":"232.7219","PERIAPSIS":"538.743"},{"LAUNCH_DATE":"2022-08-28","REV_AT_EPOCH":"130","RA_OF_ASC_NODE":"4.6062","RCS_SIZE":"LARGE","OBJECT_TYPE":"PAYLOAD","TIME_SYSTEM":"UTC","ARG_OF_PERICENTER":"61.5345","SEMIMAJOR_AXIS":"6917.812","SITE":"AFETR","CLASSIFICATION_TYPE":"U","MEAN_ELEMENT_THEORY":"SGP4","TLE_LINE2":"2 53598  53.2193   4.6062 0001652  61.5345 293.5477 15.08862319  1305","MEAN_MOTION":"15.08862319","APOAPSIS":"540.820","DECAY_DATE":null,"PERIAPSIS":"538.534","MEAN_ANOMALY":"293.5477","ELEMENT_SET_NO":"999","FILE":"3635100","COUNTRY_CODE":"US","EPOCH":"2022-10-26T22:00:00.999936","OBJECT_NAME":"STARLINK-4676","NORAD_CAT_ID":"53598","REF_FRAME":"TEME","BSTAR":"-0.00050634000000","PERIOD":"95.436","INCLINATION":"53.2193","OBJECT_ID":"2022-104L","CENTER_NAME":"EARTH","ECCENTRICITY":"0.00016520","TLE_LINE1":"1 53598U 22104L   22299.91667824 -.00008342  00000-0 -50634-3 0  9996","MEAN_MOTION_DOT":"-0.00008342","GP_ID":"216267676","EPHEMERIS_TYPE":"0","MEAN_MOTION_DDOT":"0.0000000000000"},{"FILE":"3635031","COUNTRY_CODE":"US","ELEMENT_SET_NO":"999","ECCENTRICITY":"0.00049090","TLE_LINE1":"1 53599U 22104M   22299.91667824  .00200994  26562-4  54645-3 0  9993","MEAN_MOTION_DOT":"0.00200994","EPHEMERIS_TYPE":"0","GP_ID":"216242152","MEAN_MOTION_DDOT":"0.0000265620000","OBJECT_NAME":"STARLINK-4665","EPOCH":"2022-10-26T22:00:00.999936","NORAD_CAT_ID":"53599","REF_FRAME":"TEME","BSTAR":"0.00054645000000","INCLINATION":"53.2118","PERIOD":"90.350","OBJECT_ID":"2022-104M","CENTER_NAME":"EARTH","ARG_OF_PERICENTER":"2.3817","SEMIMAJOR_AXIS":"6669.792","SITE":"AFETR","CLASSIFICATION_TYPE":"U","LAUNCH_DATE":"2022-08-28","REV_AT_EPOCH":"951","RCS_SIZE":"LARGE","OBJECT_TYPE":"PAYLOAD","RA_OF_ASC_NODE":"346.7889","TIME_SYSTEM":"UTC","PERIAPSIS":"288.383","MEAN_ANOMALY":"219.7029","MEAN_ELEMENT_THEORY":"SGP4","TLE_LINE2":"2 53599  53.2118 346.7889 0004909   2.3817 219.7029 15.93801722  9514","MEAN_MOTION":"15.93801722","APOAPSIS":"294.932","DECAY_DATE":null},{"NORAD_CAT_ID":"53600","OBJECT_NAME":"STARLINK-4677","EPOCH":"2022-10-26T22:00:00.999936","CENTER_NAME":"EARTH","REF_FRAME":"TEME","BSTAR":"-0.00028208000000","PERIOD":"95.437","INCLINATION":"53.2190","OBJECT_ID":"2022-104N","TLE_LINE1":"1 53600U 22104N   22299.91667824 -.00004775  00000-0 -28208-3 0  9998","ECCENTRICITY":"0.00015730","MEAN_MOTION_DOT":"-0.00004775","GP_ID":"216267852","MEAN_MOTION_DDOT":"0.0000000000000","EPHEMERIS_TYPE":"0","ELEMENT_SET_NO":"999","FILE":"3635100","COUNTRY_CODE":"US","MEAN_MOTION":"15.08844777","MEAN_ELEMENT_THEORY":"SGP4","TLE_LINE2":"2 53600  53.2190   4.5208 0001573  52.6543 342.5284 15.08844777  1309","DECAY_DATE":null,"APOAPSIS":"540.819","MEAN_ANOMALY":"342.5284","PERIAPSIS":"538.643","LAUNCH_DATE":"2022-08-28","REV_AT_EPOCH":"130","TIME_SYSTEM":"UTC","RCS_SIZE":"LARGE","RA_OF_ASC_NODE":"4.5208","OBJECT_TYPE":"PAYLOAD","ARG_OF_PERICENTER":"52.6543","SEMIMAJOR_AXIS":"6917.866","CLASSIFICATION_TYPE":"U","SITE":"AFETR"},{"CLASSIFICATION_TYPE":"U","SITE":"AFETR","ARG_OF_PERICENTER":"53.2989","SEMIMAJOR_AXIS":"6917.822","TIME_SYSTEM":"UTC","RCS_SIZE":"LARGE","RA_OF_ASC_NODE":"4.6381","OBJECT_TYPE":"PAYLOAD","LAUNCH_DATE":"2022-08-28","REV_AT_EPOCH":"130","MEAN_ANOMALY":"281.8322","PERIAPSIS":"538.506","APOAPSIS":"540.868","DECAY_DATE":null,"MEAN_MOTION":"15.08859097","MEAN_ELEMENT_THEORY":"SGP4","TLE_LINE2":"2 53601  53.2191   4.6381 0001707  53.2989 281.8322 15.08859097  1303","FILE":"3635100","COUNTRY_CODE":"US","ELEMENT_SET_NO":"999","MEAN_MOTION_DOT":"-0.00048341","MEAN_MOTION_DDOT":"0.0000000000000","GP_ID":"216268196","EPHEMERIS_TYPE":"0","TLE_LINE1":"1 53601U 22104P   22299.91667824 -.00048341  00000-0 -30381-2 0  9990","ECCENTRICITY":"0.00017070","CENTER_NAME":"EARTH","BSTAR":"-0.00303810000000","REF_FRAME":"TEME","INCLINATION":"53.2191","PERIOD":"95.436","OBJECT_ID":"2022-104P","NORAD_CAT_ID":"53601","EPOCH":"2022-10-26T22:00:00.999936","OBJECT_NAME":"STARLINK-4675"},{"REF_FRAME":"TEME","BSTAR":"-0.00183460000000","INCLINATION":"53.2163","PERIOD":"95.438","OBJECT_ID":"2022-104Q","CENTER_NAME":"EARTH","EPOCH":"2022-10-26T22:00:00.999936","OBJECT_NAME":"STARLINK-4648","NORAD_CAT_ID":"53602","MEAN_MOTION_DOT":"-0.00029364","GP_ID":"216241658","MEAN_MOTION_DDOT":"0.0000000000000","EPHEMERIS_TYPE":"0","ECCENTRICITY":"0.00015520","TLE_LINE1":"1 53602U 22104Q   22299.91667824 -.00029364  00000-0 -18346-2 0  9992","ELEMENT_SET_NO":"999","FILE":"3635031","COUNTRY_CODE":"US","DECAY_DATE":null,"APOAPSIS":"540.830","MEAN_ELEMENT_THEORY":"SGP4","TLE_LINE2":"2 53602  53.2163   0.0004 0001552  56.4142 100.7266 15.08836519  9330","MEAN_MOTION":"15.08836519","PERIAPSIS":"538.682","MEAN_ANOMALY":"100.7266","RA_OF_ASC_NODE":"0.0004","RCS_SIZE":"LARGE","OBJECT_TYPE":"PAYLOAD","TIME_SYSTEM":"UTC","LAUNCH_DATE":"2022-08-28","REV_AT_EPOCH":"933","SITE":"AFETR","CLASSIFICATION_TYPE":"U","ARG_OF_PERICENTER":"56.4142","SEMIMAJOR_AXIS":"6917.891"},{"TLE_LINE2":"2 53603  53.2144   0.1169 0001348  56.4264  40.6078 15.08824074  9337","MEAN_ELEMENT_THEORY":"SGP4","MEAN_MOTION":"15.08824074","APOAPSIS":"540.727","DECAY_DATE":null,"PERIAPSIS":"538.862","MEAN_ANOMALY":"40.6078","REV_AT_EPOCH":"933","LAUNCH_DATE":"2022-08-28","RCS_SIZE":"LARGE","OBJECT_TYPE":"PAYLOAD","RA_OF_ASC_NODE":"0.1169","TIME_SYSTEM":"UTC","SEMIMAJOR_AXIS":"6917.929","ARG_OF_PERICENTER":"56.4264","SITE":"AFETR","CLASSIFICATION_TYPE":"U","OBJECT_NAME":"STARLINK-4692","EPOCH":"2022-10-26T22:00:00.999936","NORAD_CAT_ID":"53603","PERIOD":"95.439","OBJECT_ID":"2022-104R","INCLINATION":"53.2144","BSTAR":"0.00003181400000","REF_FRAME":"TEME","CENTER_NAME":"EARTH","ECCENTRICITY":"0.00013480","TLE_LINE1":"1 53603U 22104R   22299.91667824  .00000218  00000-0  31814-4 0  9995","MEAN_MOTION_DDOT":"0.0000000000000","GP_ID":"216241662","EPHEMERIS_TYPE":"0","MEAN_MOTION_DOT":"0.00000218","ELEMENT_SET_NO":"999","COUNTRY_CODE":"US","FILE":"3635031"}];
